STARLINK-11297 [DTC]    
1 61060U 24164L   24266.58335648 -.00462512  00000+0 -17823-2 0  9996
2 61060  53.1676  60.5471 0000933  74.5057 206.4950 15.87647298  2543
STARLINK-11233 [DTC]    
1 61061U 24164M   24266.58335648 -.00447947  00000+0 -16932-2 0  9992
2 61061  53.1679  60.5334 0000989 105.3771 182.3104 15.88000279  2717
STARLINK-11236 [DTC]    
1 61062U 24164N   24266.58335648 -.00438616  00000+0 -16287-2 0  9999
2 61062  53.1679  60.5194 0000955  99.9015 194.3148 15.88334473  2542
STARLINK-32350          
1 61063U 24164P   24266.58335648 -.00935641  00000+0 -49018-2 0  9998
2 61063  53.1673  60.6117 0000949  68.4998 180.8316 15.82443179  2665
STARLINK-32378          
1 61064U 24164Q   24266.58335648 -.00963293  00000+0 -50583-2 0  9992
2 61064  53.1674  60.5995 0001118  84.4178 170.6497 15.82462869  2661
STARLINK-32321          
1 61065U 24164R   24266.58335648 -.00946965  00000+0 -49631-2 0  9992
2 61065  53.1674  60.6063 0001329  87.4441 164.4360 15.82459706  2700
STARLINK-32381          
1 61066U 24164S   24266.83335648 -.00908140  00000+0 -48570-2 0  9995
2 61066  53.1675  59.3416 0001237  74.1218 167.8925 15.81933391  2690
STARLINK-32368          
1 61067U 24164T   24266.58335648 -.00986491  00000+0 -51880-2 0  9991
2 61067  53.1673  60.5891 0001018  75.6100 184.6070 15.82490708  2669
STARLINK-32385          
1 61068U 24164U   24266.58335648 -.01026745  00000+0 -54195-2 0  9992
2 61068  53.1672  60.5721 0001157  86.7123 181.7546 15.82515035  2705
STARLINK-32380          
1 61069U 24164V   24266.58335648 -.01010819  00000+0 -53262-2 0  9992
2 61069  53.1674  60.5783 0000906  69.4062 196.0805 15.82513304  2666
STARLINK-32375          
1 61070U 24164W   24266.58335648 -.01001393  00000+0 -52737-2 0  9997
2 61070  53.1675  60.5834 0001239  87.0929 176.0069 15.82497127  2703
QAEM 100 R/B            
1 61071U 24165A   24266.59862154  .00004065  00000+0  29773-3 0  9998
2 61071  64.0960 312.6893 0007081 244.5233 115.5148 15.04996236  1251
CHAMRAN-1               
1 61072U 24165B   24265.72922498  .00007504  00000+0  50944-3 0  9996
2 61072  64.0898 315.4740 0012058 291.6514  68.3315 15.07038849  1126
POLARIS DAWN DEB [TRUNK]
1 61073U 24161B   24266.86496355  .01205259  11288-4  12379-2 0  9999
2 61073  51.6520 322.9938 0131279  97.4240 264.1707 15.94712360  1223
2024-166A               
1 61179U 24166A   24266.81306124  .00083270  00000+0  47566-3 0  9998
2 61179  96.7677 162.1224 0012257 220.4466 212.8863 15.78542391   877
2024-166B               
1 61180U 24166B   24266.49359431  .00047304  00000+0  27199-3 0  9991
2 61180  96.7690 161.8107 0012196 223.0406 196.4980 15.78512394   805
QAEM 100 DEB            
1 61181U 24165C   24266.84873726  .00100595  00000+0  63197-2 0  9997
2 61181  64.1250 311.7725 0011741 296.7959  63.1954 15.08572724  1004
2024-167A               
1 61182U 24167A   24262.62984586  .00000023  00000+0  00000+0 0  9995
2 61182  55.4112 238.7904 0011500 358.5907 203.7095  1.72628866    07
2024-167B               
1 61183U 24167B   24262.62984605  .00000023  00000+0  00000+0 0  9998
2 61183  55.4153 238.8019 0009724   3.5886 198.6094  1.72618277    05
2024-167C               
1 61184U 24167C   24262.62984566  .00000023  00000+0  00000+0 0  9995
2 61184  55.4118 238.7933 0018516 349.5066 212.5109  1.72809167    06
2024-168A               
1 61185U 24168A   24263.43598583 -.00000061  00000+0  00000+0 0  9990
2 61185  54.9542 324.1833 0060030 295.4181 211.8162  1.79780130    02
2024-168B               
1 61186U 24168B   24266.48417306 -.00000085  00000+0  00000+0 0  9998
2 61186  54.9857 324.0959 0117803 177.0253 181.4017  1.82968745    56
2024-168C               
1 61187U 24168C   24266.48408617 -.00000085  00000+0  00000+0 0  9994
2 61187  54.9893 324.0946 0117000 177.0523 180.7976  1.82924295    61
2024-168D               
1 61188U 24168D   24266.36516535  .00143857 -46237-7  19130-2 0  9993
2 61188  55.0101 322.2796 5824836 171.2674 206.7349  4.41401459   152
2024-169A               
1 61189U 24169A   24266.87049457  .00010554  00000+0  66859-3 0  9992
2 61189  97.5970 352.2515 0010908 251.5676 108.4367 15.09089291   404
2024-169B               
1 61190U 24169B   24266.87034357  .00010588  00000+0  66910-3 0  9992
2 61190  97.5871 352.2485 0011350 253.7934 106.2046 15.09173386   404
2024-169C               
1 61191U 24169C   24266.87003404  .00010665  00000+0  67089-3 0  9996
2 61191  97.5942 352.2511 0010289 257.6725 102.3352 15.09349624   402
2024-169D               
1 61192U 24169D   24266.86990905  .00011198  00000+0  70267-3 0  9991
2 61192  97.5869 352.2493 0011638 259.0919 100.9001 15.09417438   404
2024-169E               
1 61193U 24169E   24266.86973846  .00010763  00000+0  67372-3 0  9997
2 61193  97.5971 352.2522 0012039 261.0154  98.9713 15.09511695   408
2024-169F               
1 61194U 24169F   24266.86971557  .00010805  00000+0  67607-3 0  9993
2 61194  97.5947 352.2517 0012278 261.2904  98.6934 15.09524144   401
2024-170A               
1 61195U 24170A   24264.61115573 -.00000133  00000+0  00000+0 0  9999
2 61195  44.8592  98.7233 0008549 288.3466 165.6598 14.13493965    17
2024-170B               
1 61196U 24170B   24264.61132917 -.00000133  00000+0  00000+0 0  9991
2 61196  44.8545  98.7063 0007260 273.1037 181.8982 14.13621692    19
2024-170C               
1 61197U 24170C   24264.61089365 -.00000133  00000+0  00000+0 0  9990
2 61197  44.8603  98.7570 0008653 283.9389 168.5642 14.13293772    13
2024-170D               
1 61198U 24170D   24264.61094536 -.00000133  00000+0  00000+0 0  9997
2 61198  44.8605  98.7373 0008436 258.8571 193.9007 14.13224658    36
KZ-1A R/B               
1 61199U 24170E   24265.93659581 -.00002419  76573-5  00000+0 0  9994
2 61199  44.7439  91.5705 0519763 120.1838 245.1701 14.80559440   235
2024-172A               
1 61220U 24172A   24265.41231138 -.00000051  00000+0  00000+0 0  9994
2 61220  98.0110 351.8865 0000965  59.2084  36.5796 14.76742842    63
2024-172B               
1 61221U 24172B   24265.41120009 -.00000051  00000+0  00000+0 0  9999
2 61221  98.0177 351.8938 0001936 320.6986 129.2665 14.76762733    69
2024-172C               
1 61222U 24172C   24265.41202617 -.00000051  00000+0  00000+0 0  9996
2 61222  98.0135 351.8915 0002591 335.6732 118.8048 14.76935804    62
2024-172D               
1 61223U 24172D   24265.41220731 -.00000052  00000+0  00000+0 0  9995
2 61223  98.0194 351.9026 0002858 321.4639 134.3902 14.77219832    66
2024-172E               
1 61224U 24172E   24265.41199212 -.00000052  00000+0  00000+0 0  9995
2 61224  98.0139 351.8888 0002820 295.8326 159.1080 14.77370992    53
2024-172F               
1 61225U 24172F   24265.38353626 -.00000810  25655-5  00000+0 0  9994
2 61225  98.0201 351.9143 0324140 226.4447 185.3587 15.55288619    15
2024-172G               
1 61226U 24172G   24265.41561635 -.00000062  00000+0  00000+0 0  9990
2 61226  98.0108 351.9013 0057472  48.4531  82.7540 14.89679613    18
NOAA 1                  
1 04793U 70106A   24266.59551749 -.00000030  00000+0  82792-4 0  9997
2 04793 101.4362 315.3654 0031924 145.9613 345.4352 12.54032951461398
NOAA 2 (ITOS-D)         
1 06235U 72082A   24266.48892529 -.00000033  00000+0  88122-4 0  9993
2 06235 102.0220 266.5997 0003785 299.9796 179.2184 12.53186614375692
NOAA 3                  
1 06920U 73086A   24266.48490861 -.00000037  00000+0  69319-4 0  9993
2 06920 102.2839 263.3404 0006238 205.8014 274.9715 12.40371855303451
NOAA 4                  
1 07529U 74089A   24266.46686693 -.00000042  00000+0  28640-4 0  9999
2 07529 101.9959 261.6474 0008877 325.4108 158.9180 12.53184575280263
NOAA 5                  
1 09057U 76077A   24266.51784166 -.00000028  00000+0  13884-3 0  9993
2 09057 102.2203 239.8107 0010146  57.0345  57.9578 12.37805800176198
TIROS N                 
1 11060U 78096A   24266.52366220  .00000348  00000+0  18690-3 0  9995
2 11060  98.5242 303.2495 0009272 274.7596  85.2521 14.18931891589017
NOAA 6                  
1 11416U 79057A   24266.47692280  .00000633  00000+0  23934-3 0  9994
2 11416  98.6260 287.5791 0009476 339.4835  20.5968 14.34718396360203
NOAA 7                  
1 12553U 81059A   24266.87980699  .00000140  00000+0  91113-4 0  9998
2 12553  98.8835 326.2501 0010365 276.1900  83.8094 14.17581619235373
NOAA 8                  
1 13923U 83022A   24266.51921970  .00000399  00000+0  17411-3 0  9994
2 13923  98.7359 266.6861 0013998 312.1462  47.8530 14.29364378160679
NOAA 9                  
1 15427U 84123A   24266.51709046  .00000333  00000+0  18983-3 0  9999
2 15427  99.1244 266.3702 0014454 345.3350 166.9624 14.16695293 53825
NOAA 10                 
1 16969U 86073A   24266.49494830  .00000429  00000+0  18786-3 0  9993
2 16969  98.6513 251.5621 0013121  50.9549  62.0047 14.28733421979040
NOAA 11                 
1 19531U 88089A   24266.83002608  .00000216  00000+0  13187-3 0  9990
2 19531  98.5302 225.1410 0010311 319.2982  40.7421 14.15598718858258
NOAA 12                 
1 21263U 91032A   24266.57255665  .00000291  00000+0  13861-3 0  9993
2 21263  98.5670 255.5337 0014926  78.1260 282.1594 14.26399923734763
NOAA 13                 
1 22739U 93050A   24266.84679294  .00000321  00000+0  19347-3 0  9991
2 22739  98.6169 220.6884 0010315 129.4173 230.7915 14.13306778604288
NOAA 14                 
1 23455U 94089A   24266.57082522  .00000163  00000+0  10643-3 0  9996
2 23455  98.4407 257.2133 0010685 100.9908 259.2469 14.14450084533765
NOAA 15                 
1 25338U 98030A   24266.86320206  .00000378  00000+0  17385-3 0  9992
2 25338  98.5638 291.9336 0011007  44.5182 315.6881 14.26716152371365
